[{"OBJECT_NAME":"STARLINK-3861","OBJECT_ID":"2022-049BE","EPOCH":"2023-11-23T21:53:33.182304","MEAN_MOTION":15.0883505,"ECCENTRICITY":0.0001537,"INCLINATION":53.2168,"RA_OF_ASC_NODE":195.6111,"ARG_OF_PERICENTER":87.6393,"MEAN_ANOMALY":272.4776,"EPHEMERIS_TYPE":0,"CLASSIFICATION_TYPE":"U","NORAD_CAT_ID":52503,"ELEMENT_SET_NO":999,"REV_AT_EPOCH":8620,"BSTAR":-2.5851e-5,"MEAN_MOTION_DOT":-6.99e-6,"MEAN_MOTION_DDOT":0},{"OBJECT_NAME":"STARLINK-3951","OBJECT_ID":"2022-051A","EPOCH":"2023-11-24T02:37:00.827904","MEAN_MOTION":15.08840741,"ECCENTRICITY":0.0001929,"INCLINATION":53.2173,"RA_OF_ASC_NODE":284.8202,"ARG_OF_PERICENTER":92.9439,"MEAN_ANOMALY":267.1774,"EPHEMERIS_TYPE":0,"CLASSIFICATION_TYPE":"U","NORAD_CAT_ID":52533,"ELEMENT_SET_NO":999,"REV_AT_EPOCH":8521,"BSTAR":0.00041203,"MEAN_MOTION_DOT":6.276e-5,"MEAN_MOTION_DDOT":0},{"OBJECT_NAME":"STARLINK-3952","OBJECT_ID":"2022-051B","EPOCH":"2023-11-24T04:01:47.111232","MEAN_MOTION":15.08829522,"ECCENTRICITY":0.000195,"INCLINATION":53.2181,"RA_OF_ASC_NODE":284.4266,"ARG_OF_PERICENTER":120.3244,"MEAN_ANOMALY":239.7941,"EPHEMERIS_TYPE":0,"CLASSIFICATION_TYPE":"U","NORAD_CAT_ID":52534,"ELEMENT_SET_NO":999,"REV_AT_EPOCH":8522,"BSTAR":-9.9957e-5,"MEAN_MOTION_DOT":-1.878e-5,"MEAN_MOTION_DDOT":0},{"OBJECT_NAME":"STARLINK-3958","OBJECT_ID":"2022-051C","EPOCH":"2023-11-24T03:56:28.946688","MEAN_MOTION":15.08835968,"ECCENTRICITY":0.0001539,"INCLINATION":53.2182,"RA_OF_ASC_NODE":284.4275,"ARG_OF_PERICENTER":115.8038,"MEAN_ANOMALY":244.3113,"EPHEMERIS_TYPE":0,"CLASSIFICATION_TYPE":"U","NORAD_CAT_ID":52535,"ELEMENT_SET_NO":999,"REV_AT_EPOCH":8522,"BSTAR":2.9991e-6,"MEAN_MOTION_DOT":-2.4e-6,"MEAN_MOTION_DDOT":0},{"OBJECT_NAME":"STARLINK-3964","OBJECT_ID":"2022-051D","EPOCH":"2023-11-24T03:51:10.685376","MEAN_MOTION":15.08842251,"ECCENTRICITY":0.0001807,"INCLINATION":53.2176,"RA_OF_ASC_NODE":284.435,"ARG_OF_PERICENTER":117.0736,"MEAN_ANOMALY":243.044,"EPHEMERIS_TYPE":0,"CLASSIFICATION_TYPE":"U","NORAD_CAT_ID":52536,"ELEMENT_SET_NO":999,"REV_AT_EPOCH":8522,"BSTAR":-2.5238e-5,"MEAN_MOTION_DOT":-6.9e-6,"MEAN_MOTION_DDOT":0},{"OBJECT_NAME":"STARLINK-3897","OBJECT_ID":"2022-051E","EPOCH":"2023-11-24T03:19:21.368928","MEAN_MOTION":15.08828857,"ECCENTRICITY":0.0001466,"INCLINATION":53.2157,"RA_OF_ASC_NODE":284.351,"ARG_OF_PERICENTER":97.3296,"MEAN_ANOMALY":262.7863,"EPHEMERIS_TYPE":0,"CLASSIFICATION_TYPE":"U","NORAD_CAT_ID":52537,"ELEMENT_SET_NO":999,"REV_AT_EPOCH":8522,"BSTAR":0.00013478,"MEAN_MOTION_DOT":1.857e-5,"MEAN_MOTION_DDOT":0},{"OBJECT_NAME":"STARLINK-3933","OBJECT_ID":"2022-051F","EPOCH":"2023-11-24T03:35:17.444544","MEAN_MOTION":15.08835448,"ECCENTRICITY":0.0001886,"INCLINATION":53.2189,"RA_OF_ASC_NODE":284.4961,"ARG_OF_PERICENTER":82.0471,"MEAN_ANOMALY":278.0735,"EPHEMERIS_TYPE":0,"CLASSIFICATION_TYPE":"U","NORAD_CAT_ID":52538,"ELEMENT_SET_NO":999,"REV_AT_EPOCH":8522,"BSTAR":-9.8351e-5,"MEAN_MOTION_DOT":-1.853e-5,"MEAN_MOTION_DDOT":0},{"OBJECT_NAME":"STARLINK-3757","OBJECT_ID":"2022-051G","EPOCH":"2023-11-24T03:40:35.239296","MEAN_MOTION":15.08835614,"ECCENTRICITY":0.0002003,"INCLINATION":53.2198,"RA_OF_ASC_NODE":284.464,"ARG_OF_PERICENTER":82.3076,"MEAN_ANOMALY":277.8144,"EPHEMERIS_TYPE":0,"CLASSIFICATION_TYPE":"U","NORAD_CAT_ID":52539,"ELEMENT_SET_NO":999,"REV_AT_EPOCH":8522,"BSTAR":-3.2167e-5,"MEAN_MOTION_DOT":-8.0e-6,"MEAN_MOTION_DDOT":0},{"OBJECT_NAME":"STARLINK-3940","OBJECT_ID":"2022-051H","EPOCH":"2023-11-24T03:04:51.534336","MEAN_MOTION":15.08824203,"ECCENTRICITY":0.0001936,"INCLINATION":53.2165,"RA_OF_ASC_NODE":284.4816,"ARG_OF_PERICENTER":94.9107,"MEAN_ANOMALY":265.2106,"EPHEMERIS_TYPE":0,"CLASSIFICATION_TYPE":"U","NORAD_CAT_ID":52540,"ELEMENT_SET_NO":999,"REV_AT_EPOCH":8522,"BSTAR":1.1632e-6,"MEAN_MOTION_DOT":-2.7e-6,"MEAN_MOTION_DDOT":0},{"OBJECT_NAME":"STARLINK-3845","OBJECT_ID":"2022-051J","EPOCH":"2023-11-24T02:33:40.832640","MEAN_MOTION":15.0883465,"ECCENTRICITY":0.000182,"INCLINATION":53.216,"RA_OF_ASC_NODE":289.6868,"ARG_OF_PERICENTER":98.8317,"MEAN_ANOMALY":261.2881,"EPHEMERIS_TYPE":0,"CLASSIFICATION_TYPE":"U","NORAD_CAT_ID":52541,"ELEMENT_SET_NO":999,"REV_AT_EPOCH":8514,"BSTAR":0.00028987,"MEAN_MOTION_DOT":4.328e-5,"MEAN_MOTION_DDOT":0},{"OBJECT_NAME":"STARLINK-3937","OBJECT_ID":"2022-051K","EPOCH":"2023-11-24T03:14:05.297856","MEAN_MOTION":15.08831555,"ECCENTRICITY":0.0002077,"INCLINATION":53.2164,"RA_OF_ASC_NODE":284.5608,"ARG_OF_PERICENTER":132.5926,"MEAN_ANOMALY":227.5242,"EPHEMERIS_TYPE":0,"CLASSIFICATION_TYPE":"U","NORAD_CAT_ID":52542,"ELEMENT_SET_NO":999,"REV_AT_EPOCH":8522,"BSTAR":-0.00011288,"MEAN_MOTION_DOT":-2.084e-5,"MEAN_MOTION_DDOT":0},{"OBJECT_NAME":"STARLINK-3926","OBJECT_ID":"2022-051L","EPOCH":"2023-11-24T03:29:59.445024","MEAN_MOTION":15.08832323,"ECCENTRICITY":0.0001861,"INCLINATION":53.2187,"RA_OF_ASC_NODE":284.5111,"ARG_OF_PERICENTER":86.11,"MEAN_ANOMALY":274.0104,"EPHEMERIS_TYPE":0,"CLASSIFICATION_TYPE":"U","NORAD_CAT_ID":52543,"ELEMENT_SET_NO":999,"REV_AT_EPOCH":8522,"BSTAR":-3.4629e-5,"MEAN_MOTION_DOT":-8.39e-6,"MEAN_MOTION_DDOT":0},{"OBJECT_NAME":"STARLINK-3944","OBJECT_ID":"2022-051M","EPOCH":"2023-11-24T03:58:28.306560","MEAN_MOTION":15.08837793,"ECCENTRICITY":0.0001675,"INCLINATION":53.2182,"RA_OF_ASC_NODE":289.4329,"ARG_OF_PERICENTER":97.4535,"MEAN_ANOMALY":262.6647,"EPHEMERIS_TYPE":0,"CLASSIFICATION_TYPE":"U","NORAD_CAT_ID":52544,"ELEMENT_SET_NO":999,"REV_AT_EPOCH":8515,"BSTAR":-4.2556e-6,"MEAN_MOTION_DOT":-3.56e-6,"MEAN_MOTION_DDOT":0},{"OBJECT_NAME":"STARLINK-3939","OBJECT_ID":"2022-051N","EPOCH":"2023-11-24T03:24:40.541760","MEAN_MOTION":15.08846523,"ECCENTRICITY":0.0001709,"INCLINATION":53.2155,"RA_OF_ASC_NODE":284.5282,"ARG_OF_PERICENTER":110.2588,"MEAN_ANOMALY":249.8588,"EPHEMERIS_TYPE":0,"CLASSIFICATION_TYPE":"U","NORAD_CAT_ID":52545,"ELEMENT_SET_NO":999,"REV_AT_EPOCH":8522,"BSTAR":0.00024111,"MEAN_MOTION_DOT":3.552e-5,"MEAN_MOTION_DDOT":0},{"OBJECT_NAME":"STARLINK-3948","OBJECT_ID":"2022-051P","EPOCH":"2023-11-24T03:45:48.885120","MEAN_MOTION":15.08836764,"ECCENTRICITY":0.0001468,"INCLINATION":53.2183,"RA_OF_ASC_NODE":284.0636,"ARG_OF_PERICENTER":108.2844,"MEAN_ANOMALY":251.8308,"EPHEMERIS_TYPE":0,"CLASSIFICATION_TYPE":"U","NORAD_CAT_ID":52546,"ELEMENT_SET_NO":999,"REV_AT_EPOCH":8523,"BSTAR":-7.1927e-6,"MEAN_MOTION_DOT":-4.02e-6,"MEAN_MOTION_DDOT":0},{"OBJECT_NAME":"STARLINK-3869","OBJECT_ID":"2022-051Q","EPOCH":"2023-11-24T04:03:45.550080","MEAN_MOTION":15.08828795,"ECCENTRICITY":0.0001713,"INCLINATION":53.2164,"RA_OF_ASC_NODE":289.4026,"ARG_OF_PERICENTER":100.9295,"MEAN_ANOMALY":259.189,"EPHEMERIS_TYPE":0,"CLASSIFICATION_TYPE":"U","NORAD_CAT_ID":52547,"ELEMENT_SET_NO":999,"REV_AT_EPOCH":8515,"BSTAR":0.001039,"MEAN_MOTION_DOT":0.00016281,"MEAN_MOTION_DDOT":0},{"OBJECT_NAME":"STARLINK-3931","OBJECT_ID":"2022-051R","EPOCH":"2023-11-24T02:42:17.648064","MEAN_MOTION":15.08832538,"ECCENTRICITY":0.0001403,"INCLINATION":53.2158,"RA_OF_ASC_NODE":284.6614,"ARG_OF_PERICENTER":106.8334,"MEAN_ANOMALY":253.2812,"EPHEMERIS_TYPE":0,"CLASSIFICATION_TYPE":"U","NORAD_CAT_ID":52548,"ELEMENT_SET_NO":999,"REV_AT_EPOCH":8522,"BSTAR":4.1203e-5,"MEAN_MOTION_DOT":3.68e-6,"MEAN_MOTION_DDOT":0}]
