STARLINK-3861           
1 52503U 22049BE  23327.91218961 -.00000699  00000+0 -25851-4 0  9996
2 52503  53.2168 195.6111 0001537  87.6393 272.4776 15.08835050 86204
STARLINK-3951           
1 52533U 22051A   23328.10903736  .00006276  00000+0  41203-3 0  9998
2 52533  53.2173 284.8202 0001929  92.9439 267.1774 15.08840741 85212
STARLINK-3952           
1 52534U 22051B   23328.16790638 -.00001878  00000+0 -99957-4 0  9995
2 52534  53.2181 284.4266 0001950 120.3244 239.7941 15.08829522 85228
STARLINK-3958           
1 52535U 22051C   23328.16422392 -.00000240  00000+0  29991-5 0  9998
2 52535  53.2182 284.4275 0001539 115.8038 244.3113 15.08835968 85227
STARLINK-3964           
1 52536U 22051D   23328.16054034 -.00000690  00000+0 -25238-4 0  9992
2 52536  53.2176 284.4350 0001807 117.0736 243.0440 15.08842251 85224
STARLINK-3897           
1 52537U 22051E   23328.13844177  .00001857  00000+0  13478-3 0  9991
2 52537  53.2157 284.3510 0001466  97.3296 262.7863 15.08828857 85226
STARLINK-3933           
1 52538U 22051F   23328.14950746 -.00001853  00000+0 -98351-4 0  9995
2 52538  53.2189 284.4961 0001886  82.0471 278.0735 15.08835448 85227
STARLINK-3757           
1 52539U 22051G   23328.15318564 -.00000800  00000+0 -32167-4 0  9997
2 52539  53.2198 284.4640 0002003  82.3076 277.8144 15.08835614 85224
STARLINK-3940           
1 52540U 22051H   23328.12837424 -.00000270  00000+0  11632-5 0  9992
2 52540  53.2165 284.4816 0001936  94.9107 265.2106 15.08824203 85224
STARLINK-3845           
1 52541U 22051J   23328.10672260  .00004328  00000+0  28987-3 0  9992
2 52541  53.2160 289.6868 0001820  98.8317 261.2881 15.08834650 85146
STARLINK-3937           
1 52542U 22051K   23328.13478354 -.00002084  00000+0 -11288-3 0  9999
2 52542  53.2164 284.5608 0002077 132.5926 227.5242 15.08831555 85220
STARLINK-3926           
1 52543U 22051L   23328.14582691 -.00000839  00000+0 -34629-4 0  9992
2 52543  53.2187 284.5111 0001861  86.1100 274.0104 15.08832323 85221
STARLINK-3944           
1 52544U 22051M   23328.16560540 -.00000356  00000+0 -42556-5 0  9997
2 52544  53.2182 289.4329 0001675  97.4535 262.6647 15.08837793 85155
STARLINK-3939           
1 52545U 22051N   23328.14213590  .00003552  00000+0  24111-3 0  9990
2 52545  53.2155 284.5282 0001709 110.2588 249.8588 15.08846523 85220
STARLINK-3948           
1 52546U 22051P   23328.15681580 -.00000402  00000+0 -71927-5 0  9992
2 52546  53.2183 284.0636 0001468 108.2844 251.8308 15.08836764 85234
STARLINK-3869           
1 52547U 22051Q   23328.16927720  .00016281  00000+0  10390-2 0  9997
2 52547  53.2164 289.4026 0001713 100.9295 259.1890 15.08828795 85151
STARLINK-3931           
1 52548U 22051R   23328.11270426  .00000368  00000+0  41203-4 0  9995
2 52548  53.2158 284.6614 0001403 106.8334 253.2812 15.08832538 85227
